OBJECT_NAME,OBJECT_ID,EPOCH,MEAN_MOTION,ECCENTRICITY,INCLINATION,RA_OF_ASC_NODE,ARG_OF_PERICENTER,MEAN_ANOMALY,EPHEMERIS_TYPE,CLASSIFICATION_TYPE,NORAD_CAT_ID,ELEMENT_SET_NO,REV_AT_EPOCH,BSTAR,MEAN_MOTION_DOT,MEAN_MOTION_DDOT
SAUDISAT 1C (SO-50),2002-058C,2026-06-04T09:51:04.686624,14.83018633,.00755045,64.5504,168.5155,264.8060,94.4426,0,U,27607,999,26256,.15984186E-3,.1212E-4,0
SAUDISAT 2,2004-025F,2026-06-04T12:39:36.073440,14.56676307,.00242262,98.5505,155.1824,338.4708,21.5468,0,U,28371,999,16390,.91212561E-4,.359E-5,0
SAUDISAT 3,2007-012B,2026-06-04T17:54:36.819072,14.71418148,.00132503,98.1450,106.1392,267.0879,92.8811,0,U,31118,999,2591,.6425831E-4,.347E-5,0
PISAT,2016-059B,2026-06-03T23:56:32.830080,14.68959119,.00275826,97.8177,156.0175,246.5558,113.2748,0,U,41784,999,51780,.17863658E-3,.1004E-4,0
FLYING LAPTOP,2017-042G,2026-06-04T22:05:03.342912,15.01062529,.00187804,97.4642,311.9299,161.8339,198.3561,0,U,42831,999,48461,.3225919E-3,.4082E-4,0
SALSAT,2020-068K,2026-06-03T23:56:12.056928,15.29597840,.00093644,97.8850,157.2614,359.9507,0.1729,0,U,46495,999,31334,.30076162E-3,.8555E-4,0
